#aV2023  1 18  0  0  0.00000000     288 DD+AD WGS84 FIT  NGA
## 2245 259200.00000000   300.00000000 59962 0.0000000000000
+   31     1  2  3  4  5  6  7  8  9 10 11 12 13 14 15 16 17
+         18 19 20 21 22 23 24 25 26 27 29 30 31 32  0  0  0
+          0  0  0  0  0  0  0  0  0  0  0  0  0  0  0  0  0
+          0  0  0  0  0  0  0  0  0  0  0  0  0  0  0  0  0
+          0  0  0  0  0  0  0  0  0  0  0  0  0  0  0  0  0
++         2  2  2  2  2  2  2  2  2  2  2  2  2  2  2  2  2
++         2  2  2  2  2  2  2  2  2  2  2  2  2  2  0  0  0
++         0  0  0  0  0  0  0  0  0  0  0  0  0  0  0  0  0
++         0  0  0  0  0  0  0  0  0  0  0  0  0  0  0  0  0
++         0  0  0  0  0  0  0  0  0  0  0  0  0  0  0  0  0
%c cc cc ccc ccc cccc cccc cccc cccc ccccc ccccc ccccc ccccc
%c cc cc ccc ccc cccc cccc cccc cccc ccccc ccccc ccccc ccccc
%f  0.0000000  0.000000000  0.00000000000  0.000000000000000
%f  0.0000000  0.000000000  0.00000000000  0.000000000000000
%i    0    0    0    0      0      0      0      0         0
%i    0    0    0    0      0      0      0      0         0
/*      NGA, ST. LOUIS,MO.                                  
/*   EPHEMERIS COMPUTED FROM 2 DAYS OF DATA                 
/*   EPOCHA v8 SMOOTHER                                     
/*   G2139 IERS2010 SATIGS SATAPC                           
*  2023  1 18 23 25  0.00000000
P  1  13109.863678 -11486.350219  19613.952203    222.763000                    
V  1    649.422550  25653.236921  14695.025486     -0.046487                    
P  2 -11009.910460  15867.904066 -17701.143330   -626.474770                    
V  2  -3395.253137 -23465.925928 -18064.546764      0.023173                    
P  3  23267.687181 -12643.347612    896.724968   -371.319750                    
V  3     71.382645   2712.722234  32164.157902      0.023743                    
P  4  17750.233414  -4677.367804 -19231.580880    -45.945293                    
V  4  19997.220883  14015.925283  14935.984041      0.077302                    
P  5 -22240.275413   2099.484753 -14624.318012   -112.506030                    
V  5  14374.759340 -11360.976693 -23652.015824     -0.014568                    
P  6  -5939.303981 -24053.808288  -9375.936839    560.569499                    
V  6   1961.081229 -11981.844027  29362.998565      0.058182                    
P  7   6895.318611 -23395.432922  -9461.317399    256.527868                    
V  7   3257.345189  12820.894582 -28550.978025     -0.063345                    
P  8  23994.758075   4451.682593  10889.767963   -104.237647                    
V  8  11041.682747   8513.157218 -27296.968680     -0.017953                    
P  9   7142.377533 -13603.986328 -21741.994632   -234.078444                    
V  9  24049.967270  13214.811758   -416.000655      0.066495                    
P 10   -560.370407  16567.105484  20848.143198    -20.971155                    
V 10 -23061.585974  12287.772576 -10775.659912     -0.016069                    
P 11 -12317.152289 -14111.479063 -18833.985556    -81.971196                    
V 11   2642.973873 -23806.973526  16064.850144     -0.089994                    
P 12 -24320.947254  10301.069720   1917.198937   -329.728880                    
V 12   1309.798831  -3664.023487  31832.894539     -0.045564                    
P 13 -22671.766027 -12744.561970   5688.341768    461.655942                    
V 13  -4404.718994  -6391.560257 -30729.883535      0.063672                    
P 14   3688.359741 -17682.520107  19437.463397    -46.569512                    
V 14  22537.052525 -10315.269050 -13785.581985      0.078340                    
P 15 -24307.149773  -1582.771852  10457.967696      5.804423                    
V 15 -11663.494385  -8196.433258 -26912.119636      0.032841                    
P 16  20986.695160   2930.445079 -16592.790195   -523.418221                    
V 16 -17876.223123   9752.725037 -20808.889823      0.012058                    
P 17  -5924.034368 -18761.939905  18234.733559    694.268079                    
V 17  19237.138007  11294.829273  18405.173331      0.026069                    
P 18  -5313.700532  24976.536574  -7029.842552   -104.564235                    
V 18  -2234.363039  -9003.200033 -30419.709477     -0.153153                    
P 19 -15952.622457 -19286.617826   9046.435901    265.937937                    
V 19  10633.007015   5309.314258  29065.017973      0.050777                    
P 20 -14905.988549  -7097.328003 -20736.207915    456.208383                    
V 20  19885.219109 -17532.204744  -8495.723063     -0.023868                    
P 21  15387.754871  -1716.278691  22159.248540    153.536210                    
V 21   2599.846519  26624.282925   1058.069867      0.002372                    
P 22  18112.778573  18456.145124   6870.481227    408.769741                    
V 22  -8046.682879  -2655.914038  30082.387757      0.079869                    
P 23 -12148.747079  18797.261221  14190.369305      2.909115                    
V 23 -16419.124702   7751.790494 -24467.047801      0.011951                    
P 24 -14642.973009   7246.106444  20524.545034    -35.921855                    
V 24  -3336.405065 -26858.582075   7402.085224     -0.166092                    
P 25 -19464.530904  16754.987707  -6460.557752    412.503666                    
V 25  -8352.012962   1341.774094  30352.241787      0.033396                    
P 26  11110.550861  11519.272826 -21328.537014    240.498353                    
V 26 -22310.949671  15039.759374  -3176.050271      0.005441                    
P 27  23380.984037  13053.102099    534.274493    123.705882                    
V 27   -275.528955   2371.091652 -31666.325492     -0.093501                    
P 29 -10581.886552  10659.233040 -21954.489528   -581.193889                    
V 29 -22740.000042 -15836.680226   3203.947649     -0.022436                    
P 30  -1201.624254 -26313.747701   2112.592928   -532.904712                    
V 30   3869.878726  -2552.424216 -31187.698149      0.009949                    
P 31   7331.750138  22797.078916 -11141.848526   -206.719724                    
V 31  -3254.778623  13998.875683  27353.276958     -0.011257                    
P 32  10076.141260  18762.456220  16157.686787   -368.427228                    
V 32 -18379.213033  -8433.092810  21267.756469     -0.123124                    
EOF
